KINEIS-2D               
1 62930U 25028C   26194.08911777  .00000887  00000+0  13679-3 0  9990
2 62930  97.9273 246.0354 0004685 114.2416 245.9283 14.75765414 76533
KINEIS-2E               
1 62931U 25028D   26194.10308841  .00000766  00000+0  11555-3 0  9993
2 62931  97.8942 245.1839 0002125  96.8477 263.2975 14.77084439 76605
KINEIS-2A               
1 62932U 25028E   26194.10465843  .00000715  00000+0  11810-3 0  9998
2 62932  98.1289 249.5305 0006037  88.7593 271.4306 14.73447772 76423
KINEIS-2B               
1 62934U 25028G   26194.08202938  .00000692  00000+0  11431-3 0  9994
2 62934  97.9656 246.4732 0004915  78.7019 281.4741 14.73448444 76471
KINEIS-4E               
1 63300U 25056A   26194.27866152  .00000796  00000+0  13364-3 0  9990
2 63300  97.9066 317.4537 0003014  89.0376 271.1177 14.72299842 70968
KINEIS-4C               
1 63301U 25056B   26194.29106941  .00000816  00000+0  13675-3 0  9994
2 63301  97.9120 317.7134 0002641 219.6093 140.4922 14.72321600 70973
KINEIS-4D               
1 63302U 25056C   26194.29432865  .00000829  00000+0  13839-3 0  9998
2 63302  97.9040 317.6913 0001366 225.5525 134.5571 14.72424083 70971
KINEIS-4A               
1 63303U 25056D   26194.32956701  .00000800  00000+0  13422-3 0  9990
2 63303  97.9135 317.6751 0001944 156.1633 203.9665 14.72331112 70973
KINEIS-4B               
1 63304U 25056E   26194.31228427  .00000798  00000+0  13378-3 0  9993
2 63304  97.9147 317.7153 0005138 199.1330 160.9686 14.72325514 70967
