{"fetched_at":"2026-07-13T18:17:03.911Z","source":"https://celestrak.org/NORAD/elements/gp.php?NAME=KINEIS&FORMAT=JSON","constellation":"kineis","records":[{"OBJECT_NAME":"KINEIS-2D","OBJECT_ID":"2025-028C","EPOCH":"2026-07-13T02:08:19.775328","CLASSIFICATION_TYPE":"U","MEAN_MOTION":14.75765414,"ECCENTRICITY":0.00046857,"INCLINATION":97.9273,"RA_OF_ASC_NODE":246.0354,"ARG_OF_PERICENTER":114.2416,"MEAN_ANOMALY":245.9283,"EPHEMERIS_TYPE":0,"NORAD_CAT_ID":62930,"ELEMENT_SET_NO":999,"REV_AT_EPOCH":7653,"BSTAR":0.00013679376,"MEAN_MOTION_DOT":0.00000887,"MEAN_MOTION_DDOT":0},{"OBJECT_NAME":"KINEIS-2E","OBJECT_ID":"2025-028D","EPOCH":"2026-07-13T02:28:26.838624","CLASSIFICATION_TYPE":"U","MEAN_MOTION":14.77084439,"ECCENTRICITY":0.0002125,"INCLINATION":97.8942,"RA_OF_ASC_NODE":245.1839,"ARG_OF_PERICENTER":96.8477,"MEAN_ANOMALY":263.2975,"EPHEMERIS_TYPE":0,"NORAD_CAT_ID":62931,"ELEMENT_SET_NO":999,"REV_AT_EPOCH":7660,"BSTAR":0.00011554594,"MEAN_MOTION_DOT":0.00000766,"MEAN_MOTION_DDOT":0},{"OBJECT_NAME":"KINEIS-2A","OBJECT_ID":"2025-028E","EPOCH":"2026-07-13T02:30:42.488352","CLASSIFICATION_TYPE":"U","MEAN_MOTION":14.73447772,"ECCENTRICITY":0.00060371,"INCLINATION":98.1289,"RA_OF_ASC_NODE":249.5305,"ARG_OF_PERICENTER":88.7593,"MEAN_ANOMALY":271.4306,"EPHEMERIS_TYPE":0,"NORAD_CAT_ID":62932,"ELEMENT_SET_NO":999,"REV_AT_EPOCH":7642,"BSTAR":0.00011810456,"MEAN_MOTION_DOT":0.00000715,"MEAN_MOTION_DDOT":0},{"OBJECT_NAME":"KINEIS-2B","OBJECT_ID":"2025-028G","EPOCH":"2026-07-13T01:58:07.338432","CLASSIFICATION_TYPE":"U","MEAN_MOTION":14.73448444,"ECCENTRICITY":0.0004915,"INCLINATION":97.9656,"RA_OF_ASC_NODE":246.4732,"ARG_OF_PERICENTER":78.7019,"MEAN_ANOMALY":281.4741,"EPHEMERIS_TYPE":0,"NORAD_CAT_ID":62934,"ELEMENT_SET_NO":999,"REV_AT_EPOCH":7647,"BSTAR":0.00011431291,"MEAN_MOTION_DOT":0.00000692,"MEAN_MOTION_DDOT":0},{"OBJECT_NAME":"KINEIS-4E","OBJECT_ID":"2025-056A","EPOCH":"2026-07-13T06:41:16.355328","CLASSIFICATION_TYPE":"U","MEAN_MOTION":14.72299842,"ECCENTRICITY":0.00030149,"INCLINATION":97.9066,"RA_OF_ASC_NODE":317.4537,"ARG_OF_PERICENTER":89.0376,"MEAN_ANOMALY":271.1177,"EPHEMERIS_TYPE":0,"NORAD_CAT_ID":63300,"ELEMENT_SET_NO":999,"REV_AT_EPOCH":7096,"BSTAR":0.00013363566,"MEAN_MOTION_DOT":0.00000796,"MEAN_MOTION_DDOT":0},{"OBJECT_NAME":"KINEIS-4C","OBJECT_ID":"2025-056B","EPOCH":"2026-07-13T06:59:08.397024","CLASSIFICATION_TYPE":"U","MEAN_MOTION":14.723216,"ECCENTRICITY":0.00026415,"INCLINATION":97.912,"RA_OF_ASC_NODE":317.7134,"ARG_OF_PERICENTER":219.6093,"MEAN_ANOMALY":140.4922,"EPHEMERIS_TYPE":0,"NORAD_CAT_ID":63301,"ELEMENT_SET_NO":999,"REV_AT_EPOCH":7097,"BSTAR":0.0001367496,"MEAN_MOTION_DOT":0.00000816,"MEAN_MOTION_DDOT":0},{"OBJECT_NAME":"KINEIS-4D","OBJECT_ID":"2025-056C","EPOCH":"2026-07-13T07:03:49.995360","CLASSIFICATION_TYPE":"U","MEAN_MOTION":14.72424083,"ECCENTRICITY":0.00013669,"INCLINATION":97.904,"RA_OF_ASC_NODE":317.6913,"ARG_OF_PERICENTER":225.5525,"MEAN_ANOMALY":134.5571,"EPHEMERIS_TYPE":0,"NORAD_CAT_ID":63302,"ELEMENT_SET_NO":999,"REV_AT_EPOCH":7097,"BSTAR":0.00013839098,"MEAN_MOTION_DOT":0.00000829,"MEAN_MOTION_DDOT":0},{"OBJECT_NAME":"KINEIS-4A","OBJECT_ID":"2025-056D","EPOCH":"2026-07-13T07:54:34.589664","CLASSIFICATION_TYPE":"U","MEAN_MOTION":14.72331112,"ECCENTRICITY":0.00019446,"INCLINATION":97.9135,"RA_OF_ASC_NODE":317.6751,"ARG_OF_PERICENTER":156.1633,"MEAN_ANOMALY":203.9665,"EPHEMERIS_TYPE":0,"NORAD_CAT_ID":63303,"ELEMENT_SET_NO":999,"REV_AT_EPOCH":7097,"BSTAR":0.0001342184,"MEAN_MOTION_DOT":0.000008,"MEAN_MOTION_DDOT":0},{"OBJECT_NAME":"KINEIS-4B","OBJECT_ID":"2025-056E","EPOCH":"2026-07-13T07:29:41.360928","CLASSIFICATION_TYPE":"U","MEAN_MOTION":14.72325514,"ECCENTRICITY":0.0005138,"INCLINATION":97.9147,"RA_OF_ASC_NODE":317.7153,"ARG_OF_PERICENTER":199.133,"MEAN_ANOMALY":160.9686,"EPHEMERIS_TYPE":0,"NORAD_CAT_ID":63304,"ELEMENT_SET_NO":999,"REV_AT_EPOCH":7096,"BSTAR":0.00013378312,"MEAN_MOTION_DOT":0.00000798,"MEAN_MOTION_DDOT":0}]}
